SIRION PATHFINDER-2     
1 43759U 18099B   26139.10897072  .00002947  00000+0  16457-3 0  9997
2 43759  97.4267 188.8605 0009861  49.4231 310.7858 15.14255255408221
CORVUS BC4              
1 43767U 18099K   26139.07634685  .00003146  00000+0  18555-3 0  9994
2 43767  97.4085 182.9113 0010052 101.0674 259.1687 15.12232036408009
M2 PATHFINDER           
1 45727U 20037E   26139.25051870  .00001054  00000+0  79718-4 0  9991
2 45727  97.8160 330.1592 0009947 247.5973 112.4199 15.04536058321142
NETSAT-4                
1 46504U 20068U   26139.27265794  .00011075  00000+0  25476-3 0  9998
2 46504  97.8612 145.2143 0007397  73.6405 286.5654 15.42816884311317
NETSAT-3                
1 46505U 20068V   26138.80195486  .00012010  00000+0  28759-3 0  9994
2 46505  97.8661 142.9613 0007481  87.9231 272.2871 15.41580825311154
NETSAT-1                
1 46506U 20068W   26139.24308807  .00008054  00000+0  24834-3 0  9990
2 46506  97.8751 138.1025 0006974 106.4000 253.8009 15.33869523310867
NETSAT-2                
1 46507U 20068X   26139.28508538  .00014210  00000+0  30662-3 0  9995
2 46507  97.8626 145.0235 0006277  96.5040 263.6922 15.44660241311275
GREENCUBE (IO-117)      
1 53109U 22080E   26138.45774430 -.00000003  00000+0  00000+0 0  9996
2 53109  70.1432 308.5883 0008836 296.6746  63.3009  6.42583323 90159
SITRO-AIS 5 (KATYS)     
1 57176U 23091L   26139.27611322  .00007220  00000+0  26087-3 0  9992
2 57176  97.5071 202.9143 0011330 196.4764 163.6109 15.28720659159920
SITRO-AIS 6 (CHIRKIN)   
1 57192U 23091AC  26139.25516514  .00006232  00000+0  24980-3 0  9997
2 57192  97.5080 202.1626 0011454 199.9063 160.1729 15.25326009159875
SITRO-AIS 8 (ANOKHIN)   
1 57193U 23091AD  26139.27712953  .00008530  00000+0  28456-3 0  9990
2 57193  97.5067 204.3895 0010645 191.9523 168.1467 15.31270480160021
SITRO-AIS 7 (FARTUSHNIY)
1 57194U 23091AE  26139.25252743  .00005968  00000+0  24153-3 0  9997
2 57194  97.5077 201.9995 0011258 200.9812 159.0966 15.25027943159860
SITRO-AIS 10 (BURDAEV)  
1 57199U 23091AK  26139.29705667  .00011711  00000+0  32119-3 0  9998
2 57199  97.5090 209.1736 0007609 165.3913 194.7552 15.37413125160328
SITRO-AIS 9 (SHCHUKIN)  
1 57201U 23091AM  26139.24951957  .00011950  00000+0  33251-3 0  9995
2 57201  97.5088 208.8769 0007802 166.0051 194.1410 15.36956251160303
SITRO-AIS 12 (SMIRENNIY)
1 57204U 23091AQ  26139.24555194  .00011628  00000+0  32068-3 0  9998
2 57204  97.5100 209.3221 0007592 160.3743 199.7795 15.37241453160322
SITRO-AIS 11 (SHEFFER)  
1 57208U 23091AU  26139.26670417  .00011977  00000+0  32605-3 0  9994
2 57208  97.5099 209.5726 0007520 160.1707 199.9831 15.37637755160343
SITRO-AIS 25            
1 59066U 24039R   26139.29682124  .00003245  00000+0  25279-3 0  9990
2 59066  95.3917 215.2421 0147290  69.5130 292.1836 14.93299925120418
SITRO-AIS 26            
1 59067U 24039S   26139.29429495  .00003161  00000+0  24746-3 0  9996
2 59067  95.3918 215.1439 0147607  70.0643 291.6414 14.93101767120407
SITRO-AIS 27            
1 59068U 24039T   26139.27258196  .00002910  00000+0  22615-3 0  9997
2 59068  95.3919 215.3875 0146545  68.8230 292.8583 14.93511423120428
SITRO-AIS 28            
1 59071U 24039U   26139.31768361  .00002550  00000+0  19833-3 0  9994
2 59071  95.3921 215.4640 0146496  68.5013 293.1760 14.93548385120436
GRBBETA                 
1 60237U 24128C   26139.21474786  .00002615  00000+0  18759-3 0  9991
2 60237  61.9902 317.8971 0044604 128.6482 231.8616 15.06375655101903
OOV-CUBE (TUBSAT-30)    
1 60240U 24128F   26139.24260196  .00001502  00000+0  12538-3 0  9999
2 60240  61.9945 326.4904 0048246 127.4537 233.0958 15.02609411101763
ROBUSTA-3A (MEDITERRAN*)
1 60243U 24128J   26138.89331250  .00005615  00000+0  33797-3 0  9991
2 60243  61.9868 311.8010 0045402 122.4855 238.0641 15.11170902101992
LASARSAT                
1 62391U 24247Q   26139.21153896  .00019872  00000+0  42671-3 0  9995
2 62391  44.9757  64.7984 0005507 164.9742 195.1312 15.44422391 78830
CROCUBE                 
1 62394U 24247T   26139.17767380  .00023066  00000+0  46732-3 0  9994
2 62394  44.9735  62.7604 0005257 168.6608 191.4402 15.46046066 78854
FORESAIL-1 PRIME        
1 66778U 25276DS  26138.47590792  .00003455  00000+0  17124-3 0  9993
2 66778  97.4207 212.2958 0002332 169.5381 190.5902 15.18401791 25894
KNACKSAT-2              
1 67683U 98067XZ  26139.04864862  .00031100  00000+0  42253-3 0  9992
2 67683  51.6308  80.7389 0012200  92.2883 267.9506 15.57245204 15733
